GLOBALSTAR M094         
1 39074U 13005C   24265.50532750 -.00000091  00000+0  69265-4 0  9990
2 39074  51.9946 280.1759 0000566  62.3145 297.7779 12.62268451538448
GLOBALSTAR M096         
1 39075U 13005D   24266.15201777 -.00000069  00000+0  19598-3 0  9993
2 39075  52.0091 326.5125 0000615  71.8519 288.2415 12.62270454537794
GLOBALSTAR M078         
1 39076U 13005E   24265.49191455 -.00000105  00000+0 -78608-5 0  9992
2 39076  51.9878  53.3907 0000495 349.5971  10.4885 12.62274842536196
GLOBALSTAR M095         
1 39077U 13005F   24266.07281978 -.00000103  00000+0  49752-5 0  9993
2 39077  51.9808  48.9531 0000770  47.9902 312.1030 12.62264916536276
GLOBALSTAR M087         
1 52888U 22064A   24265.42609892 -.00000099  00000+0  55643-4 0  9999
2 52888  51.9744 232.7974 0008886 248.7192 111.2760 13.37585998110402
